ALOS (DAICHI)           
1 28931U 06002A   26023.84213412  .00002389  00000+0  40996-3 0  9991
2 28931  98.1154 340.0501 0002203  81.8971 278.2485 14.69644204 66892
H-2A R/B                
1 28932U 06002B   26024.12106448  .00014015  00000+0  71655-3 0  9999
2 28932  98.2347 167.3686 0053992  34.0357 326.4317 15.15500496 87687
RESURS-DK 1             
1 29228U 06021A   26024.16217131  .00004788  00000+0  28074-3 0  9998
2 29228  69.9348 352.1789 0005134 217.8314 142.2492 15.12448661 80794
CZ-4B R/B               
1 29507U 06046C   26023.94320916  .00008391  00000+0  42890-3 0  9992
2 29507  97.5676  68.9681 0035009  63.8774 296.6054 15.16380578 53267
CZ-2C R/B               
1 31114U 07010B   26023.56716913  .00000282  00000+0  14834-3 0  9993
2 31114  98.3971 139.1133 0060017  65.9643 294.7800 14.20229144973319
COSMO-SKYMED 1          
1 31598U 07023A   26024.19554632  .00006956  00000+0  62281-3 0  9994
2 31598  97.8844 214.8853 0001237  90.2671 269.8692 14.96147017  8254
COSMOS 2428             
1 31792U 07029A   26024.14591514  .00000493  00000+0  29021-3 0  9996
2 31792  70.9402 296.8488 0006252 327.6288  32.4449 14.12919204957800
SL-16 R/B               
1 31793U 07029B   26024.10188645 -.00000024  00000+0  12172-4 0  9991
2 31793  70.9739 266.1117 0001965 272.1413 194.9131 14.14822309959066
KORONAS-FOTON           
1 33504U 09003A   26024.07427611  .00017184  00000+0  39939-3 0  9995
2 33504  82.4332 322.2120 0009900 329.1510  30.9154 15.42152496938865
CZ-2C R/B               
1 37731U 11030B   26023.88170626  .00002011  00000+0  25977-3 0  9993
2 37731  97.8477 342.0728 0053736 134.9662 246.8856 14.81046142783464
H-2A R/B                
1 38341U 12025E   26023.88434531  .00005417  00000+0  49417-3 0  9992
2 38341  98.4656 347.3866 0046095  98.9532 261.6908 14.94757127741524
SHIJIAN-16 (SJ-16)      
1 39358U 13057A   26024.17962634  .00002934  00000+0  28997-3 0  9991
2 39358  74.9718 269.3442 0017702 221.6631 138.3210 14.92196113664869
